0 OPS 4682 DEB
1 38390U 65027CT  13278.14535472  .00000178  00000-0  59787-3 0   496
2 38390 090.2564 241.7471 0032808 030.3289 329.9676 12.96068160430618
0 OPS 4682 DEB
1 38390U 65027CT  13279.14895126  .00000178  00000-0  59787-3 0   504
2 38390 090.2623 241.7731 0032512 024.1555 336.1223 12.96068918430745
0 OPS 4682 DEB
1 38390U 65027CT  13280.15254306  .00000178  00000-0  59787-3 0   517
2 38390 090.2707 241.8127 0030901 023.3365 336.9387 12.96069448430870
0 OPS 4682 DEB
1 38390U 65027CT  13281.15613256  .00000178  00000-0  59787-3 0   522
2 38390 090.2759 241.8421 0031122 022.1168 338.1319 12.96070839431009
0 OPS 4682 DEB
1 38390U 65027CT  13281.69652838  .00000178  00000-0  59787-3 0   531
2 38390 090.2696 241.8427 0032350 015.3670 344.8360 12.96071156431071
0 OPS 4682 DEB
1 38390U 65027CT  13283.16331936  .00000178  00000-0  59787-3 0   549
2 38390 090.2701 241.8805 0032238 013.2228 346.9593 12.96070964431267
0 OPS 4682 DEB
1 38390U 65027CT  13285.63370826  .00000178  00000-0  59787-3 0   566
2 38390 090.2633 241.9278 0032906 003.6276 356.5057 12.96070832431585
0 OPS 4682 DEB
1 38390U 65027CT  13290.11127561  .00000178  00000-0  59787-3 0   572
2 38390 090.2633 242.0359 0032906 351.8661 008.1921 12.96072357432162
0 OPS 4682 DEB
1 38390U 65027CT  13292.11845920  .00000178  00000-0  59787-3 0   581
2 38390 090.2671 242.0836 0031016 345.3714 014.7425 12.96075699432425
